{
  "norad_id": 54162,
  "name": "STARLINK-5273",
  "history": [
    {
      "epoch": "2026-03-28T21:02:46.692384",
      "apogee_km": 540.6194670129735,
      "perigee_km": 538.8457252485259,
      "latitude_deg": 22.887848042584984,
      "longitude_deg": 40.38521375996061,
      "semi_major_axis_km": 6917.869596130749,
      "eccentricity": 0.0001282,
      "inclination_deg": 53.2171,
      "raan_deg": 288.0,
      "arg_perigee_deg": 89.6876,
      "mean_anomaly_deg": 270.4263,
      "mean_motion_rev_day": 15.08843531
    }
  ]
}