{"fetched_at":"2026-03-29T16:36:15Z","count":15609,"tles":[{"name":"STARLINK-5273","line1":"1 54162U 22141F   26087.87692931  .00000510  00000+0  50097-4 0  9996","line2":"2 54162  53.2171 288.0000 0001282  89.6876 270.4263 15.08843531188610","category":"Starlink"}]}